{
   "type":"FeatureCollection",
   "features":[
      {
         "type":"Feature",
         "id":"PR.BY02",
         "properties":{
            "name":"Bayamon OMME",
            "code":"BY02",
            "network":"PR",
            "distance":89.0,
            "provider":"PR",
            "location": "--",
            "components":{
               "GREATER_OF_TWO_HORIZONTALS":{
                  "SA":[{
                     "flag":1,
                     "units":"%g",
                     "value":2.6,
                     "period":0.3
                  },{
                     "flag":1,
                     "units":"%g",
                     "value":3.66,
                     "period":1.0
                  },{
                     "flag":1,
                     "units":"%g",
                     "value":0.234,
                     "period":3.0
                  }],
                  "PGA":{
                     "flag":1,
                     "units":"%g",
                     "value":4.56
                  },
                  "PGV":{
                     "flag":1,
                     "units":"cm/s",
                     "value":9.76
                  },
                  "FAS":[{
                     "flag":1,
                     "units":"cm/s",
                     "value":3.45,
                     "period":1.0
                  }]
               },"ROTD50":{
                  "SA":[{
                     "flag":1,
                     "units":"%g",
                     "value":1,
                     "period":0.3
                  }]
               }
            },
            "channels":[
               {
                  "name":"HN1",
                  "amplitudes":[
                     {
                        "name":"sa(0.3)",
                        "ln_sigma":0,
                        "flag":1,
                        "value":3.99,
                        "units":"%g"
                     },
                     {
                        "name":"sa(1.0)",
                        "ln_sigma":0,
                        "flag":1,
                        "value":1.94,
                        "units":"%g"
                     },
                     {
                        "name":"sa(3.0)",
                        "ln_sigma":0,
                        "flag":1,
                        "value":0.488,
                        "units":"%g"
                     },
                     {
                        "name":"pga",
                        "ln_sigma":0,
                        "flag":1,
                        "value":3.69,
                        "units":"%g"
                     },
                     {
                        "name":"pgv",
                        "ln_sigma":0,
                        "flag":1,
                        "value":2.65,
                        "units":"cm/s"
                     }
                  ]
               }
            ]
         },
         "geometry":{
            "type":"Point",
            "coordinates":[
               -66.147911,
               18.4084,
               30.0
            ]
         }
      },
      {
         "type":"Feature",
         "id":"OK.BY01",
         "properties":{
            "name":"BYD",
            "code":"BY01",
            "network":"OK",
            "distance":70.0,
            "provider":"OK",
            "components":{
               "GREATER_OF_TWO_HORIZONTALS":{
                  "SA":[{
                     "flag":0,
                     "units":"%g",
                     "value":0.123,
                     "period":0.3
                  },{
                     "flag":0,
                     "units":"%g",
                     "value":2.123,
                     "period":1.0
                  },{
                     "flag":0,
                     "units":"%g",
                     "value":0.233,
                     "period":3.0
                  }],
                  "PGV":{
                     "flag":0,
                     "units":"cm/s",
                     "value":1.2345
                  },
                  "FAS":[{
                     "flag":0,
                     "units":"cm/s",
                     "value":0.789,
                     "period":1.0
                  }]
               },"ROTD50":{
                  "PGV":{
                     "flag":0,
                     "units":"cm/s",
                     "value":2
                   }
                }
            },
            "channels":[
               {
                  "name":"HN1",
                  "amplitudes":[
                     {
                        "name":"sa(0.3)",
                        "ln_sigma":0,
                        "flag":0,
                        "value":2.34,
                        "units":"%g"
                     },
                     {
                        "name":"sa(1.0)",
                        "ln_sigma":0,
                        "flag":0,
                        "value":1.45,
                        "units":"%g"
                     },
                     {
                        "name":"pga",
                        "ln_sigma":0,
                        "flag":0,
                        "value":2.69,
                        "units":"%g"
                     },
                     {
                        "name":"pgv",
                        "ln_sigma":0,
                        "flag":0,
                        "value":1.23,
                        "units":"cm/s"
                     }
                  ]
               }
            ]
         },
         "geometry":{
            "type":"Point",
            "coordinates":[
               -63.4,
               17.5,
               10.0
            ]
         }
      },
      {
         "type":"Feature",
         "id":"TE.BY03",
         "properties":{
            "name":"BMD",
            "code":"BY03",
            "network":"TE",
            "distance":75,
            "provider":"TE",
            "components":{
               "ROTD50":{
                  "SA":[{
                     "flag":1,
                     "units":"%g",
                     "value":2,
                     "period":0.3
                  }],
                  "PGV":{
                     "flag":1,
                     "units":"cm/s",
                     "value":3
                   },
                   "DURATION": {
                     "flag":1,
                     "units":"s",
                     "value":10,
                     "interval":"5-95"
                   }
                },"GREATER_OF_TWO_HORIZONTALS":{
                   "SA":[{
                      "flag":1,
                      "units":"%g",
                      "value":1.4,
                      "period":0.3
                   }]
                 }
         },
         "channels":[
            {
               "name":"HN1",
               "amplitudes":[
                  {
                     "name":"sa(1.0)",
                     "ln_sigma":0,
                     "flag":1,
                     "value":1.2,
                     "units":"%g"
                  }
               ]
            }
         ]
       },
         "geometry":{
            "type":"Point",
            "coordinates":[
               -60,
               19,
               20
            ]
         }
      }
   ]
}
